CORAL                   
1 67684U 98067YA  26082.19230312  .00096510  00000+0  13187-2 0  9992
2 67684  51.6310   4.0749 0012327 223.6063 136.3956 15.56579310  6898
GXIBA-1                 
1 67685U 98067YB  26081.27305036  .00038654  00000+0  60489-3 0  9990
2 67685  51.6327   9.1857 0011628 227.8880 132.1122 15.53290377  6742
UITMSAT-2               
1 67686U 98067YC  26082.03372233  .00071513  00000+0  10723-2 0  9995
2 67686  51.6323   5.2680 0008734 200.8114 159.2523 15.54231876  6863
HMU-SAT2                
1 67687U 98067YD  26082.49942877  .00036242  00000+0  57019-3 0  9993
2 67687  51.6330   3.1286 0008334 205.8311 154.2264 15.53210479  6852
LEOPARD                 
1 67688U 98067YE  26082.48907409  .00042029  00000+0  64306-3 0  9992
2 67688  51.6326   3.0592 0008530 203.2990 156.7615 15.53908478  6850
CREW DRAGON 12          
1 67796U 26031A   26082.45371250  .00014788  00000+0  28089-3 0  9999
2 67796  51.6345   4.3184 0006177 224.0290 136.0206 15.48489537558393
PROGRESS-MS 33          
1 68319U 26058A   26082.05109224  .00200487  28256-4  35870-3 0  9993
2 68319  51.6358   6.8873 0011621 152.2903 207.8729 16.01170532    69
